start=new Date('2022-11-19T00:00:00.000Z').valueOf();
sats=[{"MEAN_ANOMALY":"315.6515","PERIAPSIS":"538.463","REF_FRAME":"TEME","OBJECT_ID":"2022-001AK","ARG_OF_PERICENTER":"44.4627","INCLINATION":"53.2181","TIME_SYSTEM":"UTC","TLE_LINE2":"2 50836  53.2181 200.2898 0001869  44.4627 315.6515 15.08836443 47856","MEAN_MOTION_DOT":"-0.00000462","EPHEMERIS_TYPE":"0","RCS_SIZE":"LARGE","BSTAR":"-0.00001095400000","APOAPSIS":"541.049","SITE":"AFETR","FILE":"3662515","ELEMENT_SET_NO":"999","CLASSIFICATION_TYPE":"U","PERIOD":"95.438","LAUNCH_DATE":"2022-01-06","MEAN_ELEMENT_THEORY":"SGP4","COUNTRY_CODE":"US","TLE_LINE1":"1 50836U 22001AK  22322.08273526 -.00000462  00000-0 -10954-4 0  9998","CENTER_NAME":"EARTH","RA_OF_ASC_NODE":"200.2898","REV_AT_EPOCH":"4785","ECCENTRICITY":"0.00018690","SEMIMAJOR_AXIS":"6917.891","NORAD_CAT_ID":"50836","OBJECT_NAME":"STARLINK-3330","EPOCH":"2022-11-18T01:59:08.326464","GP_ID":"218137781","OBJECT_TYPE":"PAYLOAD","MEAN_MOTION":"15.08836443","DECAY_DATE":null,"MEAN_MOTION_DDOT":"0.0000000000000"},{"SEMIMAJOR_AXIS":"6917.868","ECCENTRICITY":"0.00022740","NORAD_CAT_ID":"50837","OBJECT_NAME":"STARLINK-3318","CENTER_NAME":"EARTH","RA_OF_ASC_NODE":"186.6084","REV_AT_EPOCH":"4822","MEAN_ELEMENT_THEORY":"SGP4","COUNTRY_CODE":"US","TLE_LINE1":"1 50837U 22001AL  22322.90429453  .00000616  00000-0  56802-4 0  9993","LAUNCH_DATE":"2022-01-06","MEAN_MOTION_DDOT":"0.0000000000000","MEAN_MOTION":"15.08843985","DECAY_DATE":null,"EPOCH":"2022-11-18T21:42:11.047392","OBJECT_TYPE":"PAYLOAD","GP_ID":"218167961","INCLINATION":"53.2155","TIME_SYSTEM":"UTC","TLE_LINE2":"2 50837  53.2155 186.6084 0002274  43.1707 316.9463 15.08843985 48225","ARG_OF_PERICENTER":"43.1707","OBJECT_ID":"2022-001AL","MEAN_ANOMALY":"316.9463","PERIAPSIS":"538.160","REF_FRAME":"TEME","FILE":"3662753","ELEMENT_SET_NO":"999","CLASSIFICATION_TYPE":"U","PERIOD":"95.437","APOAPSIS":"541.306","SITE":"AFETR","RCS_SIZE":"LARGE","BSTAR":"0.00005680200000","MEAN_MOTION_DOT":"0.00000616","EPHEMERIS_TYPE":"0"},{"MEAN_MOTION":"15.08848658","DECAY_DATE":null,"EPOCH":"2022-11-18T21:51:26.671104","GP_ID":"218143316","OBJECT_TYPE":"PAYLOAD","MEAN_MOTION_DDOT":"0.0000000000000","MEAN_ELEMENT_THEORY":"SGP4","COUNTRY_CODE":"US","TLE_LINE1":"1 50838U 22001AM  22322.91072536  .00002565  00000-0  17919-3 0  9991","LAUNCH_DATE":"2022-01-06","NORAD_CAT_ID":"50838","SEMIMAJOR_AXIS":"6917.854","ECCENTRICITY":"0.00019400","OBJECT_NAME":"STARLINK-3322","CENTER_NAME":"EARTH","REV_AT_EPOCH":"4928","RA_OF_ASC_NODE":"196.5703","RCS_SIZE":"LARGE","BSTAR":"0.00017919000000","MEAN_MOTION_DOT":"0.00002565","EPHEMERIS_TYPE":"0","FILE":"3662685","ELEMENT_SET_NO":"999","CLASSIFICATION_TYPE":"U","PERIOD":"95.437","APOAPSIS":"541.061","SITE":"AFETR","OBJECT_ID":"2022-001AM","MEAN_ANOMALY":"316.6264","PERIAPSIS":"538.377","REF_FRAME":"TEME","INCLINATION":"53.2156","TIME_SYSTEM":"UTC","TLE_LINE2":"2 50838  53.2156 196.5703 0001940  43.4881 316.6264 15.08848658 49285","ARG_OF_PERICENTER":"43.4881"},{"CENTER_NAME":"EARTH","REV_AT_EPOCH":"4794","RA_OF_ASC_NODE":"200.3854","OBJECT_NAME":"STARLINK-3320","SEMIMAJOR_AXIS":"6917.879","NORAD_CAT_ID":"50839","ECCENTRICITY":"0.00024120","LAUNCH_DATE":"2022-01-06","MEAN_ELEMENT_THEORY":"SGP4","TLE_LINE1":"1 50839U 22001AN  22322.06065299  .00002540  00000-0  17764-3 0  9997","COUNTRY_CODE":"US","MEAN_MOTION_DDOT":"0.0000000000000","OBJECT_TYPE":"PAYLOAD","GP_ID":"218136530","EPOCH":"2022-11-18T01:27:20.418336","MEAN_MOTION":"15.08840586","DECAY_DATE":null,"ARG_OF_PERICENTER":"39.8902","TIME_SYSTEM":"UTC","INCLINATION":"53.2177","TLE_LINE2":"2 50839  53.2177 200.3854 0002412  39.8902 320.2268 15.08840586 47946","PERIAPSIS":"538.075","MEAN_ANOMALY":"320.2268","REF_FRAME":"TEME","OBJECT_ID":"2022-001AN","APOAPSIS":"541.412","SITE":"AFETR","FILE":"3662515","PERIOD":"95.438","ELEMENT_SET_NO":"999","CLASSIFICATION_TYPE":"U","MEAN_MOTION_DOT":"0.00002540","EPHEMERIS_TYPE":"0","BSTAR":"0.00017764000000","RCS_SIZE":"LARGE"},{"MEAN_MOTION":"15.08851324","DECAY_DATE":null,"EPOCH":"2022-11-18T09:18:58.806432","GP_ID":"218137281","OBJECT_TYPE":"PAYLOAD","MEAN_MOTION_DDOT":"0.0000000000000","MEAN_ELEMENT_THEORY":"SGP4","COUNTRY_CODE":"US","TLE_LINE1":"1 50840U 22001AP  22322.38818063  .00005133  00000-0  34027-3 0  9991","LAUNCH_DATE":"2022-01-06","SEMIMAJOR_AXIS":"6917.846","ECCENTRICITY":"0.00022450","NORAD_CAT_ID":"50840","OBJECT_NAME":"STARLINK-3295","CENTER_NAME":"EARTH","REV_AT_EPOCH":"4799","RA_OF_ASC_NODE":"198.9026","RCS_SIZE":"LARGE","BSTAR":"0.00034027000000","EPHEMERIS_TYPE":"0","MEAN_MOTION_DOT":"0.00005133","FILE":"3662515","CLASSIFICATION_TYPE":"U","ELEMENT_SET_NO":"999","PERIOD":"95.437","APOAPSIS":"541.264","SITE":"AFETR","OBJECT_ID":"2022-001AP","MEAN_ANOMALY":"320.3050","PERIAPSIS":"538.158","REF_FRAME":"TEME","INCLINATION":"53.2162","TIME_SYSTEM":"UTC","TLE_LINE2":"2 50840  53.2162 198.9026 0002245  39.8106 320.3050 15.08851324 47992","ARG_OF_PERICENTER":"39.8106"},{"OBJECT_ID":"2022-001AQ","REF_FRAME":"TEME","MEAN_ANOMALY":"329.5186","PERIAPSIS":"538.015","TLE_LINE2":"2 50841  53.2163 198.8700 0002467  30.5950 329.5186 15.08847716 48007","INCLINATION":"53.2163","TIME_SYSTEM":"UTC","ARG_OF_PERICENTER":"30.5950","BSTAR":"0.00008787000000","RCS_SIZE":"LARGE","MEAN_MOTION_DOT":"0.00001111","EPHEMERIS_TYPE":"0","ELEMENT_SET_NO":"999","CLASSIFICATION_TYPE":"U","PERIOD":"95.437","FILE":"3662515","SITE":"AFETR","APOAPSIS":"541.428","COUNTRY_CODE":"US","TLE_LINE1":"1 50841U 22001AQ  22322.39921101  .00001111  00000-0  87870-4 0  9998","MEAN_ELEMENT_THEORY":"SGP4","LAUNCH_DATE":"2022-01-06","ECCENTRICITY":"0.00024670","SEMIMAJOR_AXIS":"6917.857","NORAD_CAT_ID":"50841","OBJECT_NAME":"STARLINK-3300","RA_OF_ASC_NODE":"198.8700","REV_AT_EPOCH":"4800","CENTER_NAME":"EARTH","DECAY_DATE":null,"MEAN_MOTION":"15.08847716","EPOCH":"2022-11-18T09:34:51.831264","GP_ID":"218138032","OBJECT_TYPE":"PAYLOAD","MEAN_MOTION_DDOT":"0.0000000000000"},{"ARG_OF_PERICENTER":"40.2657","INCLINATION":"53.2154","TIME_SYSTEM":"UTC","TLE_LINE2":"2 50842  53.2154 198.9321 0002170  40.2657 319.8496 15.08847755 47997","MEAN_ANOMALY":"319.8496","PERIAPSIS":"538.221","REF_FRAME":"TEME","OBJECT_ID":"2022-001AR","APOAPSIS":"541.223","SITE":"AFETR","FILE":"3662515","CLASSIFICATION_TYPE":"U","ELEMENT_SET_NO":"999","PERIOD":"95.437","EPHEMERIS_TYPE":"0","MEAN_MOTION_DOT":"0.00002727","BSTAR":"0.00018935000000","RCS_SIZE":"LARGE","CENTER_NAME":"EARTH","REV_AT_EPOCH":"4799","RA_OF_ASC_NODE":"198.9321","SEMIMAJOR_AXIS":"6917.857","NORAD_CAT_ID":"50842","ECCENTRICITY":"0.00021700","OBJECT_NAME":"STARLINK-3302","LAUNCH_DATE":"2022-01-06","MEAN_ELEMENT_THEORY":"SGP4","COUNTRY_CODE":"US","TLE_LINE1":"1 50842U 22001AR  22322.38449090  .00002727  00000-0  18935-3 0  9999","MEAN_MOTION_DDOT":"0.0000000000000","EPOCH":"2022-11-18T09:13:40.013760","GP_ID":"218136781","OBJECT_TYPE":"PAYLOAD","MEAN_MOTION":"15.08847755","DECAY_DATE":null},{"MEAN_MOTION_DDOT":"0.0000000000000","MEAN_MOTION":"15.08832964","DECAY_DATE":null,"EPOCH":"2022-11-18T01:48:32.530464","GP_ID":"218137030","OBJECT_TYPE":"PAYLOAD","SEMIMAJOR_AXIS":"6917.902","NORAD_CAT_ID":"50843","ECCENTRICITY":"0.00022860","OBJECT_NAME":"STARLINK-3325","CENTER_NAME":"EARTH","REV_AT_EPOCH":"4795","RA_OF_ASC_NODE":"200.3253","MEAN_ELEMENT_THEORY":"SGP4","COUNTRY_CODE":"US","TLE_LINE1":"1 50843U 22001AS  22322.07537651  .00001584  00000-0  11766-3 0  9992","LAUNCH_DATE":"2022-01-06","FILE":"3662515","CLASSIFICATION_TYPE":"U","ELEMENT_SET_NO":"999","PERIOD":"95.438","APOAPSIS":"541.348","SITE":"AFETR","RCS_SIZE":"LARGE","BSTAR":"0.00011766000000","EPHEMERIS_TYPE":"0","MEAN_MOTION_DOT":"0.00001584","INCLINATION":"53.2161","TIME_SYSTEM":"UTC","TLE_LINE2":"2 50843  53.2161 200.3253 0002286  39.1651 320.9506 15.08832964 47954","ARG_OF_PERICENTER":"39.1651","OBJECT_ID":"2022-001AS","MEAN_ANOMALY":"320.9506","PERIAPSIS":"538.185","REF_FRAME":"TEME"},{"SITE":"AFETR","APOAPSIS":"541.328","PERIOD":"95.438","ELEMENT_SET_NO":"999","CLASSIFICATION_TYPE":"U","FILE":"3662515","MEAN_MOTION_DOT":"-0.00001570","EPHEMERIS_TYPE":"0","BSTAR":"-0.00008057100000","RCS_SIZE":"LARGE","ARG_OF_PERICENTER":"34.0233","TLE_LINE2":"2 50844  53.2144 198.9832 0002273  34.0233 326.0905 15.08836739 48008","TIME_SYSTEM":"UTC","INCLINATION":"53.2144","REF_FRAME":"TEME","PERIAPSIS":"538.183","MEAN_ANOMALY":"326.0905","OBJECT_ID":"2022-001AT","MEAN_MOTION_DDOT":"0.0000000000000","OBJECT_TYPE":"PAYLOAD","GP_ID":"218137782","EPOCH":"2022-11-18T08:57:46.518048","DECAY_DATE":null,"MEAN_MOTION":"15.08836739","RA_OF_ASC_NODE":"198.9832","REV_AT_EPOCH":"4800","CENTER_NAME":"EARTH","SEMIMAJOR_AXIS":"6917.890","ECCENTRICITY":"0.00022730","NORAD_CAT_ID":"50844","OBJECT_NAME":"STARLINK-3326","LAUNCH_DATE":"2022-01-06","TLE_LINE1":"1 50844U 22001AT  22322.37345507 -.00001570  00000-0 -80571-4 0  9991","COUNTRY_CODE":"US","MEAN_ELEMENT_THEORY":"SGP4"},{"MEAN_MOTION_DDOT":"0.0000000000000","MEAN_MOTION":"15.08838146","DECAY_DATE":null,"GP_ID":"218137532","OBJECT_TYPE":"PAYLOAD","EPOCH":"2022-11-18T02:04:26.724288","NORAD_CAT_ID":"50845","SEMIMAJOR_AXIS":"6917.886","OBJECT_NAME":"STARLINK-3230","ECCENTRICITY":"0.00028180","CENTER_NAME":"EARTH","RA_OF_ASC_NODE":"200.2737","REV_AT_EPOCH":"4796","MEAN_ELEMENT_THEORY":"SGP4","TLE_LINE1":"1 50845U 22001AU  22322.08642042 -.00001658  00000-0 -86041-4 0  9999","COUNTRY_CODE":"US","LAUNCH_DATE":"2022-01-06","FILE":"3662515","PERIOD":"95.438","CLASSIFICATION_TYPE":"U","ELEMENT_SET_NO":"999","APOAPSIS":"541.701","SITE":"AFETR","BSTAR":"-0.00008604100000","RCS_SIZE":"LARGE","EPHEMERIS_TYPE":"0","MEAN_MOTION_DOT":"-0.00001658","TIME_SYSTEM":"UTC","INCLINATION":"53.2166","TLE_LINE2":"2 50845  53.2166 200.2737 0002818  35.6334 324.4846 15.08838146 47962","ARG_OF_PERICENTER":"35.6334","OBJECT_ID":"2022-001AU","PERIAPSIS":"537.802","MEAN_ANOMALY":"324.4846","REF_FRAME":"TEME"}];
